[
    {
        "Altitude(m)": 607897.6161890709,
        "Argument of Periapsis(deg)": 0.0,
        "Eccentricity": 0.0,
        "Inclination(deg)": 60.0,
        "Latitude(deg)": -14.292943281311478,
        "Longitude(deg)": 31.618781808332322,
        "Mean Anomaly(deg)": -16.363600000000037,
        "RAAN(deg)": 140.0,
        "Satellite Name": "Test1 637",
        "Satellite Number": 637,
        "Semi-Major Axis(m)": 6980739.136638005,
        "Time(s)": 0
    },
    {
        "Altitude(m)": 607750.8173304098,
        "Argument of Periapsis(deg)": 0.00010418945913296404,
        "Eccentricity": 0.0,
        "Inclination(deg)": 60.0,
        "Latitude(deg)": -13.758784150752838,
        "Longitude(deg)": 31.90584970737257,
        "Mean Anomaly(deg)": -15.743493854538185,
        "RAAN(deg)": 139.99957995086024,
        "Satellite Name": "Test1 637",
        "Satellite Number": 637,
        "Semi-Major Axis(m)": 6980739.136638005,
        "Time(s)": 10
    }
]